{
    "links": {
        "self": "http://www.neowsapp.com/rest/v1/neo/54046596?api_key=iIulBulltgU6a56xZRHN4H3l9WmuAYTsLGpBGhQ2"
    },
    "id": "54046596",
    "neo_reference_id": "54046596",
    "name": "(2020 ND1)",
    "designation": "2020 ND1",
    "nasa_jpl_url": "http://ssd.jpl.nasa.gov/sbdb.cgi?sstr=54046596",
    "absolute_magnitude_h": 24.477,
    "estimated_diameter": {
        "kilometers": {
            "estimated_diameter_min": 0.0338185495,
            "estimated_diameter_max": 0.0756205756
        },
        "meters": {
            "estimated_diameter_min": 33.8185495096,
            "estimated_diameter_max": 75.620575604
        },
        "miles": {
            "estimated_diameter_min": 0.0210138659,
            "estimated_diameter_max": 0.0469884327
        },
        "feet": {
            "estimated_diameter_min": 110.9532499732,
            "estimated_diameter_max": 248.0990092645
        }
    },
    "is_potentially_hazardous_asteroid": false,
    "close_approach_data": [
        {
            "close_approach_date": "2020-07-12",
            "close_approach_date_full": "2020-Jul-12 16:21",
            "epoch_date_close_approach": 1594570860000,
            "relative_velocity": {
                "kilometers_per_second": "9.753569962",
                "kilometers_per_hour": "35112.8518631976",
                "miles_per_hour": "21817.7606479963"
            },
            "miss_distance": {
                "astronomical": "0.0690579125",
                "lunar": "26.8635279625",
                "kilometers": "10330916.616646375",
                "miles": "6419333.917114975"
            },
            "orbiting_body": "Earth"
        }
    ],
    "orbital_data": {
        "orbit_id": "4",
        "orbit_determination_date": "2020-07-25 06:40:37",
        "first_observation_date": "2020-07-14",
        "last_observation_date": "2020-07-24",
        "data_arc_in_days": 10,
        "observations_used": 33,
        "orbit_uncertainty": "8",
        "minimum_orbit_intersection": ".0491291",
        "jupiter_tisserand_invariant": "3.329",
        "epoch_osculation": "2459045.5",
        "eccentricity": ".5446704771880954",
        "semi_major_axis": "2.335724207364687",
        "inclination": "11.48234917092703",
        "ascending_node_longitude": "285.7371179869152",
        "orbital_period": "1303.859421609671",
        "perihelion_distance": "1.063524188759577",
        "perihelion_argument": "352.453719742275",
        "aphelion_distance": "3.607924225969796",
        "perihelion_time": "2459034.259587590909",
        "mean_anomaly": "3.103515916061811",
        "mean_motion": ".2761033850992651",
        "equinox": "J2000",
        "orbit_class": {
            "orbit_class_type": "AMO",
            "orbit_class_description": "Near-Earth asteroid orbits similar to that of 1221 Amor",
            "orbit_class_range": "1.017 AU < q (perihelion) < 1.3 AU"
        }
    },
    "is_sentry_object": false
}